[ {"name": "STARLINK-30254", "line1": "1 57533U 23115N   26129.65346697  .00000425  00000+0  24963-4 0  9999", "line2": "2 57533  42.9999 118.8664 0002149 272.6881  87.3725 15.27595051154687"}, {"name": "STARLINK-30264", "line1": "1 57534U 23115P   26129.60964838 -.00002173  00000+0 -69510-4 0  9999", "line2": "2 57534  43.0004 224.8509 0001127 263.7547  96.3176 15.27558474154675"}, {"name": "STARLINK-30166", "line1": "1 57602U 23119A   26129.26903184  .00002594  00000+0  10377-3 0  9999", "line2": "2 57602  43.0016  99.2544 0000788 289.6428  70.4339 15.27576630152298"}, {"name": "STARLINK-30223", "line1": "1 57603U 23119B   26129.66927991  .00019181  00000+0  11936-2 0  9997", "line2": "2 57603  43.0007 107.2984 0002736 149.0286 211.0720 15.09283270152284"}, {"name": "STARLINK-30218", "line1": "1 57604U 23119C   26129.29085604 -.00000651  00000+0 -14138-4 0  9996", "line2": "2 57604  43.0029  99.4170 0001087 250.8649 109.2085 15.27578915152353"}, {"name": "STARLINK-30138", "line1": "1 57605U 23119D   26129.36010590  .00003720  00000+0  14463-3 0  9995", "line2": "2 57605  43.0023  99.0770 0001205 259.2563 100.8153 15.27586272152369"}, {"name": "STARLINK-30255", "line1": "1 57606U 23119E   26129.40491968  .00005290  00000+0  20154-3 0  9991", "line2": "2 57606  43.0011  98.5522 0002034 268.5334  91.5285 15.27593623152377"}, {"name": "STARLINK-30252", "line1": "1 57607U 23119F   26129.24643129  .00001176  00000+0  52234-4 0  9996", "line2": "2 57607  43.0035  84.6438 0000928 273.5388  86.5357 15.27582890152526"}, {"name": "STARLINK-30258", "line1": "1 57608U 23119G   26129.38193999  .00002532  00000+0  10150-3 0  9994", "line2": "2 57608  43.0049  99.2253 0001367 271.9946  88.0749 15.27584151152365"}, {"name": "STARLINK-30174", "line1": "1 57609U 23119H   26128.93565881  .00000901  00000+0  42237-4 0  9998", "line2": "2 57609  43.0015 101.0446 0000874 283.6140  76.4615 15.27581712152300"}, {"name": "STARLINK-30248", "line1": "1 57610U 23119J   26129.25616324  .00001457  00000+0  62466-4 0  9998", "line2": "2 57610  43.0043  99.1506 0001249 269.6335  90.4374 15.27580822152358"}, {"name": "STARLINK-30052", "line1": "1 57611U 23119K   26129.26644599  .00001185  00000+0  52584-4 0  9993", "line2": "2 57611  43.0021  99.2223 0001062 261.2982  98.7749 15.27582932152330"}, {"name": "STARLINK-30245", "line1": "1 57612U 23119L   26129.25745237  .00001438  00000+0  61778-4 0  9990", "line2": "2 57612  43.0035  99.1583 0001374 269.3449  90.7245 15.27577283152355"}, {"name": "STARLINK-30041", "line1": "1 57613U 23119M   26129.26772749  .00001697  00000+0  71162-4 0  9995", "line2": "2 57613  43.0007  99.2353 0001329 271.4006  88.6693 15.27582655152356"}, {"name": "STARLINK-30244", "line1": "1 57614U 23119N   26129.40620841 -.00005412  00000+0 -18718-3 0  9995", "line2": "2 57614  43.0020  98.5535 0001374 266.0092  94.0603 15.27598981152374"}, {"name": "STARLINK-30246", "line1": "1 57615U 23119P   26129.41006929  .00000852  00000+0  40489-4 0  9994", "line2": "2 57615  43.0022  98.5668 0001161 275.1869  84.8850 15.27575752152373"}, {"name": "STARLINK-30075", "line1": "1 57616U 23119Q   26129.25488343  .00000542  00000+0  29228-4 0  9995", "line2": "2 57616  43.0045  99.1476 0001733 260.0798  99.9859 15.27577929152354"}, {"name": "STARLINK-30148", "line1": "1 57617U 23119R   26129.39208638 -.00001382  00000+0 -40696-4 0  9995", "line2": "2 57617  43.0029  98.4608 0001367 321.2564  38.8190 15.27575555152375"}, {"name": "STARLINK-30249", "line1": "1 57618U 23119S   26128.93822990  .00001557  00000+0  66089-4 0  9994", "line2": "2 57618  43.0035 101.0684 0001079 270.0149  90.0579 15.27579501152307"}, {"name": "STARLINK-30141", "line1": "1 57620U 23119U   26129.27672207  .00002386  00000+0  96192-4 0  9998", "line2": "2 57620  43.0009  99.3099 0000947 277.9836  82.0909 15.27580943152357"}, {"name": "STARLINK-30150", "line1": "1 57621U 23119V   26129.27286880  .00001004  00000+0  45990-4 0  9993", "line2": "2 57621  43.0029  99.2791 0000886 263.9575  96.1175 15.27580232152357"}, {"name": "STARLINK-30056", "line1": "1 57622U 23119W   26129.28314199  .00001135  00000+0  50764-4 0  9990", "line2": "2 57622  43.0005  99.3322 0001081 274.7933  85.2795 15.27578937152355"}, {"name": "STARLINK-30100", "line1": "1 57623U 23119X   26129.28700014  .00001235  00000+0  54379-4 0  9993", "line2": "2 57623  43.0024  99.3815 0000904 265.5713  94.5036 15.27581879152351"}, {"name": "STARLINK-30309", "line1": "1 57632U 23122A   26129.42414375  .00002810  00000+0  11163-3 0  9998", "line2": "2 57632  43.0014 109.6694 0001322 266.9802  93.0899 15.27568203151490"}, {"name": "STARLINK-30306", "line1": "1 57633U 23122B   26129.29722477  .00001259  00000+0  55245-4 0  9995", "line2": "2 57633  43.0008 110.4342 0001289 265.7839  94.2865 15.27586233151470"}, {"name": "STARLINK-30323", "line1": "1 57634U 23122C   26129.40234615  .00001909  00000+0  78853-4 0  9993", "line2": "2 57634  43.0017  98.4710 0000908 275.3841  84.6907 15.27581378151624"}, {"name": "STARLINK-30329", "line1": "1 57635U 23122D   26129.43441412  .00001808  00000+0  75201-4 0  9994", "line2": "2 57635  43.0015 109.7434 0000968 266.7731  93.3010 15.27579626151490"}, {"name": "STARLINK-30330", "line1": "1 57636U 23122E   26129.63443632 -.00001198  00000+0 -34059-4 0  9993", "line2": "2 57636  43.0005 108.6639 0000514 296.0889  63.9910 15.27567981151529"}, {"name": "STARLINK-30311", "line1": "1 57637U 23122F   26129.25610379 -.00000008  00000+0  92281-5 0  9996", "line2": "2 57637  43.0045 110.1267 0001091 272.3901  87.6826 15.27573808151470"}, {"name": "STARLINK-30328", "line1": "1 57638U 23122G   26128.93694257  .00001134  00000+0  50740-4 0  9991", "line2": "2 57638  43.0038 100.9410 0001316 275.5767  84.4934 15.27565031151569"}, {"name": "STARLINK-30326", "line1": "1 57639U 23122H   26129.34718381  .00001455  00000+0  62385-4 0  9997", "line2": "2 57639  43.0035 109.9393 0001509 267.5558  92.5121 15.27580099151489"}, {"name": "STARLINK-30324", "line1": "1 57640U 23122J   26129.36517208  .00003322  00000+0  13022-3 0  9994", "line2": "2 57640  43.0004 110.0818 0001572 272.4594  87.6078 15.27569635151475"}, {"name": "STARLINK-30312", "line1": "1 57641U 23122K   26129.64199547  .00001449  00000+0  62159-4 0  9992", "line2": "2 57641  43.0024 107.8612 0001175 262.3000  97.7718 15.27580408151534"}, {"name": "STARLINK-30263", "line1": "1 57642U 23122L   26129.65227485  .00000188  00000+0  16356-4 0  9994", "line2": "2 57642  43.0033 107.9408 0000923 287.1148  72.9603 15.27575150151533"}, {"name": "STARLINK-30280", "line1": "1 57643U 23122M   26129.65997976  .00002149  00000+0  87599-4 0  9990", "line2": "2 57643  43.0050 107.9943 0001407 262.3711  97.6980 15.27577973151533"}, {"name": "STARLINK-30247", "line1": "1 57644U 23122N   26129.65613821  .00000368  00000+0  22878-4 0  9995", "line2": "2 57644  43.0010 107.9732 0000251   3.4117 356.6736 15.27573897151534"}, {"name": "STARLINK-30277", "line1": "1 57645U 23122P   26129.60712394  .00001499  00000+0  64003-4 0  9998", "line2": "2 57645  43.0069 326.3711 0001641 264.3141  95.7524 15.27582613153198"}, {"name": "STARLINK-30265", "line1": "1 57646U 23122Q   26129.25352585  .00001222  00000+0  53908-4 0  9998", "line2": "2 57646  43.0031 110.1064 0000959 275.9853  84.0889 15.27578132151472"}, {"name": "STARLINK-30286", "line1": "1 57647U 23122R   26129.66383800  .00000296  00000+0  20296-4 0  9992", "line2": "2 57647  43.0057 108.0255 0001690 285.6325  74.4340 15.27577238151532"}, {"name": "STARLINK-30243", "line1": "1 57648U 23122S   26129.42028043  .00001174  00000+0  52194-4 0  9990", "line2": "2 57648  43.0026 109.6333 0001590 267.1845  92.8825 15.27580597151493"}, {"name": "STARLINK-30299", "line1": "1 57650U 23122U   26129.66770171  .00003321  00000+0  13015-3 0  9999", "line2": "2 57650  43.0042 108.0516 0001479 281.6689  78.3997 15.27578362151534"}, {"name": "STARLINK-30294", "line1": "1 57651U 23122V   26129.25872336  .00000235  00000+0  18078-4 0  9997", "line2": "2 57651  43.0040  99.1247 0002161 250.4795 109.5823 15.27580977151603"}, {"name": "STARLINK-30276", "line1": "1 57652U 23122W   26129.41642464  .00001530  00000+0  65107-4 0  9997", "line2": "2 57652  43.0045 109.6004 0001619 265.0868  94.9798 15.27581453151492"}, {"name": "STARLINK-30289", "line1": "1 57653U 23122X   26129.63961684  .00002386  00000+0  96236-4 0  9997", "line2": "2 57653  43.0052  97.6293 0001201 267.3063  92.7652 15.27568202151645"}, {"name": "STARLINK-30267", "line1": "1 57663U 23124A   26129.68730215 -.00000024  00000+0  11323-4 0  9991", "line2": "2 57663  53.1615 283.6976 0001228  92.0842 268.0300 15.30196397152909"}, {"name": "STARLINK-30298", "line1": "1 57665U 23124C   26129.75473481 -.00000766  00000+0 -13764-4 0  9995", "line2": "2 57665  53.1613 283.4242 0001072  86.9992 273.1131 15.30187712152919"}, {"name": "STARLINK-30301", "line1": "1 57666U 23124D   26129.88063418  .00019483  00000+0  63159-3 0  9991", "line2": "2 57666  53.1603 344.2240 0001061 114.3683 245.7429 15.32023115152041"}, {"name": "STARLINK-30275", "line1": "1 57667U 23124E   26129.70838507 -.00000274  00000+0  28817-5 0  9995", "line2": "2 57667  53.1610 283.6458 0000829  83.5964 276.5131 15.30185569152904"}, {"name": "STARLINK-30278", "line1": "1 57668U 23124F   26129.70311187 -.00001372  00000+0 -34206-4 0  9995", "line2": "2 57668  53.1608 283.6382 0001163  86.7242 273.3892 15.30195557152901"}, {"name": "STARLINK-30271", "line1": "1 57669U 23124G   26129.70247528 -.00000308  00000+0  18474-5 0  9990", "line2": "2 57669  53.1610 283.4966 0000882  80.8195 279.2906 15.31696541152901"}, {"name": "STARLINK-30322", "line1": "1 57670U 23124H   26129.70733125 -.00000503  00000+0 -48649-5 0  9990", "line2": "2 57670  53.1614 283.6433 0001177  76.4771 283.6361 15.30186528152909"}, {"name": "STARLINK-30296", "line1": "1 57671U 23124J   26129.69046785 -.00000892  00000+0 -18000-4 0  9996", "line2": "2 57671  53.1611 283.6717 0001138  85.9068 274.2063 15.30184821152902"}]